     3.04           N: GNSS NAV DATA    C: BDS              RINEX VERSION / TYPE
cnvtToRINEX 3.14.0  convertToRINEX OPR  20250615 162737 UTC PGM / RUN BY / DATE 
----------------------------------------------------------- COMMENT             
BDSA   0.0000D+00  0.0000D+00  0.0000D+00  0.0000D+00       IONOSPHERIC CORR    
BDSB   0.0000D+00  0.0000D+00  0.0000D+00  0.0000D+00       IONOSPHERIC CORR    
BDUT  0.000000000000D+00 0.000000000000D+00      0    0     TIME SYSTEM CORR    
     4                                                      LEAP SECONDS        
                                                            END OF HEADER       
C11 2025 06 15 13 00 00-0.357690267265D-03 0.163167257483D-10-0.813151629364D-19
     0.100000000000D+02 0.117531250000D+03 0.341192783478D-08 0.270402087268D+01
     0.587850809097D-05 0.187156850006D-02 0.902730971575D-05 0.528261326790D+04
     0.468000000000D+05 0.800937414169D-07 0.936774088561D+00-0.759027898312D-07
     0.978589069546D+00 0.185765625000D+03-0.161078786671D+01-0.652491464603D-08
    -0.129291099779D-09 0.100000000000D+01 0.101500000000D+04 0.000000000000D+00
     0.200000000000D+01 0.000000000000D+00 0.409999989515D-08 0.150000000000D-08
     0.496800000000D+05 0.900000000000D+01 0.000000000000D+00 0.000000000000D+00
C21 2025 06 15 13 00 00-0.926893204451D-03-0.449862369578D-11 0.000000000000D+00
     0.100000000000D+01-0.122546875000D+03 0.339192700166D-08 0.392929210416D+00
    -0.616814941168D-05 0.775377731770D-03 0.469619408250D-05 0.528263484573D+04
     0.468000000000D+05-0.377185642719D-07 0.299795969635D+01-0.214204192162D-07
     0.983446514941D+00 0.275046875000D+03-0.230295308473D+00-0.677992526824D-08
    -0.263225250103D-09 0.100000000000D+01 0.101500000000D+04 0.000000000000D+00
     0.200000000000D+01 0.000000000000D+00 0.115000000633D-07 0.115000000000D-07
     0.468000000000D+05 0.100000000000D+01 0.000000000000D+00 0.000000000000D+00
C22 2025 06 15 13 00 00 0.339130288921D-03 0.671818156661D-11 0.000000000000D+00
     0.100000000000D+01-0.112250000000D+03 0.327442210711D-08 0.490070448236D+00
    -0.554509460926D-05 0.791371683590D-03 0.475905835629D-05 0.528263660240D+04
     0.468000000000D+05-0.311993062496D-07 0.299788650948D+01 0.149011611938D-07
     0.983456612001D+00 0.275468750000D+03 0.452293062633D+00-0.669992193578D-08
    -0.227152318949D-09 0.100000000000D+01 0.101500000000D+04 0.000000000000D+00
     0.200000000000D+01 0.000000000000D+00 0.140000002702D-07 0.140000000000D-07
     0.468000000000D+05 0.100000000000D+01 0.000000000000D+00 0.000000000000D+00
C12 2025 06 15 13 00 00-0.366052845493D-04 0.170663483345D-10 0.447233396150D-18
     0.130000000000D+02 0.113546875000D+03 0.348907390536D-08-0.280446827757D+01
     0.568712130189D-05 0.962026300840D-03 0.884849578142D-05 0.528262722397D+04
     0.468000000000D+05-0.325962901115D-07 0.923570835964D+00 0.866129994392D-07
     0.976908745748D+00 0.191687500000D+03-0.158924561679D+01-0.652777190790D-08
    -0.242867259253D-10 0.100000000000D+01 0.101500000000D+04 0.000000000000D+00
     0.200000000000D+01 0.000000000000D+00 0.330000005100D-08 0.000000000000D+00
     0.496800000000D+05 0.120000000000D+02 0.000000000000D+00 0.000000000000D+00
C 6 2025 06 15 13 00 00 0.440635136329D-03 0.577911052346D-10 0.000000000000D+00
     0.100000000000D+01-0.748593750000D+02 0.120326440651D-08-0.307827641219D+01
    -0.223377719522D-05 0.488987041172D-02 0.158338807523D-04 0.649328210831D+04
     0.468000000000D+05 0.391155481339D-07-0.169731118952D+01 0.745058059692D-08
     0.946365614395D+00-0.239734375000D+03-0.249883108904D+01-0.169507060649D-08
     0.884679707604D-09 0.100000000000D+01 0.101500000000D+04 0.000000000000D+00
     0.200000000000D+01 0.000000000000D+00 0.859999982339D-08-0.150000000000D-08
     0.468000000000D+05 0.000000000000D+00 0.000000000000D+00 0.000000000000D+00
C16 2025 06 15 13 00 00-0.500798458233D-03-0.356630280862D-10 0.000000000000D+00
     0.100000000000D+01-0.919375000000D+02 0.112933275553D-08 0.294150523855D+01
    -0.280421227217D-05 0.886558182538D-02 0.160061754286D-04 0.649371918869D+04
     0.468000000000D+05 0.502914190292D-07-0.169807331278D+01-0.167638063431D-07
     0.961902031149D+00-0.241390625000D+03-0.216199315823D+01-0.162185327098D-08
     0.888251284946D-09 0.100000000000D+01 0.101500000000D+04 0.000000000000D+00
     0.200000000000D+01 0.000000000000D+00-0.280000000963D-08 0.460000000000D-08
     0.468000000000D+05 0.000000000000D+00 0.000000000000D+00 0.000000000000D+00
C19 2025 06 15 13 00 00-0.948778586462D-03 0.238564723531D-11 0.000000000000D+00
     0.100000000000D+01-0.114265625000D+03 0.326585032149D-08 0.229618074393D+01
    -0.562332570553D-05 0.913140480407D-03 0.456627458334D-05 0.528263266373D+04
     0.468000000000D+05-0.209547579288D-07 0.299655083894D+01-0.819563865662D-07
     0.984175506037D+00 0.284171875000D+03-0.557493611241D+00-0.664206238284D-08
    -0.262510934634D-09 0.100000000000D+01 0.101500000000D+04 0.000000000000D+00
     0.200000000000D+01 0.000000000000D+00 0.102999999640D-07 0.103000000000D-07
     0.468000000000D+05 0.100000000000D+01 0.000000000000D+00 0.000000000000D+00
C11 2025 06 15 14 00 00-0.357631593943D-03 0.163167257483D-10-0.813151629364D-19
     0.110000000000D+02 0.116218750000D+03 0.346264423303D-08-0.309157320816D+01
     0.582030043006D-05 0.187275058124D-02 0.869249925017D-05 0.528261097908D+04
     0.504000000000D+05 0.596046447754D-07 0.936750156684D+00 0.353902578354D-07
     0.978588589708D+00 0.194515625000D+03-0.161080994360D+01-0.651920012228D-08
    -0.496449250533D-10 0.100000000000D+01 0.101500000000D+04 0.000000000000D+00
     0.200000000000D+01 0.000000000000D+00 0.409999989515D-08 0.150000000000D-08
     0.504000000000D+05 0.100000000000D+02 0.000000000000D+00 0.000000000000D+00
C22 2025 06 15 14 00 00 0.339154270478D-03 0.669597710612D-11 0.000000000000D+00
     0.100000000000D+01-0.113546875000D+03 0.331156651147D-08 0.978447442983D+00
    -0.559119507670D-05 0.790959806181D-03 0.455882400274D-05 0.528263511276D+04
     0.504000000000D+05-0.391155481339D-07 0.299786250592D+01-0.125728547573D-07
     0.983455808859D+00 0.281031250000D+03 0.451477790091D+00-0.669742183164D-08
    -0.247867467532D-09 0.100000000000D+01 0.101500000000D+04 0.000000000000D+00
     0.200000000000D+01 0.000000000000D+00 0.140000002702D-07 0.140000000000D-07
     0.504000000000D+05 0.100000000000D+01 0.000000000000D+00 0.000000000000D+00
C21 2025 06 15 14 00 00-0.926909619011D-03-0.451017001524D-11 0.000000000000D+00
     0.100000000000D+01-0.112640625000D+03 0.338121226963D-08 0.879094128199D+00
    -0.557769089937D-05 0.776341534220D-03 0.449642539024D-05 0.528263769150D+04
     0.504000000000D+05 0.772997736931D-07 0.299793525684D+01-0.791624188423D-08
     0.983445492361D+00 0.278546875000D+03-0.228897559005D+00-0.678278253012D-08
    -0.227509476683D-09 0.100000000000D+01 0.101500000000D+04 0.000000000000D+00
     0.200000000000D+01 0.000000000000D+00 0.115000000633D-07 0.115000000000D-07
     0.504000000000D+05 0.100000000000D+01 0.000000000000D+00 0.000000000000D+00
C12 2025 06 15 14 00 00-0.365438172594D-04 0.170690128698D-10 0.447233396150D-18
     0.140000000000D+02 0.101171875000D+03 0.345121518554D-08-0.231564749492D+01
     0.506406649947D-05 0.960838049650D-03 0.886712223291D-05 0.528263052940D+04
     0.504000000000D+05 0.190921127796D-07 0.923547395627D+00 0.726431608200D-07
     0.976908592141D+00 0.191390625000D+03-0.159050132130D+01-0.653491506259D-08
    -0.460733477113D-10 0.100000000000D+01 0.101500000000D+04 0.000000000000D+00
     0.200000000000D+01 0.000000000000D+00 0.330000005100D-08 0.000000000000D+00
     0.504000000000D+05 0.130000000000D+02 0.000000000000D+00 0.000000000000D+00
C 6 2025 06 15 14 00 00 0.440844218247D-03 0.579225556407D-10 0.000000000000D+00
     0.100000000000D+01-0.769531250000D+02 0.119504977862D-08-0.281575108445D+01
    -0.236928462982D-05 0.489004899282D-02 0.157686881721D-04 0.649328167725D+04
     0.504000000000D+05 0.456348061562D-07-0.169731731768D+01 0.791624188423D-08
     0.946368786001D+00-0.239296875000D+03-0.249882224717D+01-0.169649923743D-08
     0.887179811743D-09 0.100000000000D+01 0.101500000000D+04 0.000000000000D+00
     0.200000000000D+01 0.000000000000D+00 0.859999982339D-08-0.150000000000D-08
     0.513000000000D+05 0.000000000000D+00 0.000000000000D+00 0.000000000000D+00
C16 2025 06 15 14 00 00-0.500926980749D-03-0.356781271194D-10 0.000000000000D+00
     0.100000000000D+01-0.849843750000D+02 0.110111729453D-08-0.307917845333D+01
    -0.267522409558D-05 0.886470999103D-02 0.161463394761D-04 0.649372129631D+04
     0.504000000000D+05 0.656582415104D-07-0.169807922004D+01-0.931322574615D-08
     0.961905196904D+00-0.248546875000D+03-0.216201369906D+01-0.162471053286D-08
     0.894680124161D-09 0.100000000000D+01 0.101500000000D+04 0.000000000000D+00
     0.200000000000D+01 0.000000000000D+00-0.280000000963D-08 0.460000000000D-08
     0.515400000000D+05 0.000000000000D+00 0.000000000000D+00 0.000000000000D+00
C22 2025 06 15 14 00 00 0.339154270478D-03 0.669597710612D-11 0.000000000000D+00
     0.100000000000D+01-0.113546875000D+03 0.331156651147D-08 0.978447442983D+00
    -0.559119507670D-05 0.790959806181D-03 0.455882400274D-05 0.528263511276D+04
     0.504000000000D+05-0.391155481339D-07 0.299786250592D+01-0.125728547573D-07
     0.983455808859D+00 0.281031250000D+03 0.451477790091D+00-0.669742183164D-08
    -0.247867467532D-09 0.100000000000D+01 0.101500000000D+04 0.000000000000D+00
     0.200000000000D+01 0.000000000000D+00 0.140000002702D-07 0.140000000000D-07
     0.532800000000D+05 0.100000000000D+01 0.000000000000D+00 0.000000000000D+00
